{"fetched_at":"2026-03-29T16:36:15Z","count":15609,"tles":[{"name":"STARLINK-32762","line1":"1 62748U 25014P   26087.93909882  .00033581  00000+0  12236-2 0  9995","line2":"2 62748  43.0042  48.9413 0000692 266.4327  93.6446 15.27599390 66169","category":"Starlink"}]}