{
  "norad_id": 62748,
  "name": "STARLINK-32762",
  "history": [
    {
      "epoch": "2026-03-28T22:32:18.138048",
      "apogee_km": 483.46582607837263,
      "perigee_km": 482.51624595818794,
      "latitude_deg": -15.42824286751347,
      "longitude_deg": -175.04651328013279,
      "semi_major_axis_km": 6861.12803601828,
      "eccentricity": 6.92e-05,
      "inclination_deg": 43.0042,
      "raan_deg": 48.9413,
      "arg_perigee_deg": 266.4327,
      "mean_anomaly_deg": 93.6446,
      "mean_motion_rev_day": 15.2759939
    }
  ]
}